{
  "type": "FeatureCollection",
  "features": [
    {
      "type": "Feature",
      "properties": {
        "norad_id": 36711,
        "name": "FENGYUN 1C DEB",
        "group": "fengyun-1c-debris",
        "lat": -40.51962810450697,
        "lon": 167.9435320564599,
        "alt_km": 686.8204113063866,
        "timestamp": "2025-12-05T20:43:02.343545+00:00",
        "meta_object_name": "FENGYUN 1C DEB",
        "meta_object_id": "1999-025EAH",
        "meta_epoch": "2025-11-29T18:49:32.545344",
        "meta_mean_motion": 14.42080972,
        "meta_eccentricity": 0.01000486,
        "meta_inclination": 100.8061,
        "meta_ra_of_asc_node": 349.6584,
        "meta_arg_of_pericenter": 244.1532,
        "meta_mean_anomaly": 114.9305,
        "meta_ephemeris_type": 0,
        "meta_classification_type": "U",
        "meta_norad_cat_id": 36711,
        "meta_element_set_no": 999,
        "meta_rev_at_epoch": 64124,
        "meta_bstar": 0.0024295961,
        "meta_mean_motion_dot": 8.419e-05,
        "meta_mean_motion_ddot": 0,
        "tle_line1": "1 36711U 99025EAH 25333.78440446  .00008419  00000+0  24296-2 0  9992",
        "tle_line2": "2 36711 100.8061 349.6584 0100048 244.1532 114.9305 14.42080972641246"
      },
      "geometry": {
        "type": "Point",
        "coordinates": [
          167.9435320564599,
          -40.51962810450697
        ]
      }
    },
    {
      "type": "Feature",
      "properties": {
        "norad_id": 36716,
        "name": "FENGYUN 1C DEB",
        "group": "fengyun-1c-debris",
        "lat": 23.760784535511135,
        "lon": 83.08657266249715,
        "alt_km": 935.1711635630445,
        "timestamp": "2025-12-05T20:43:02.343565+00:00",
        "meta_object_name": "FENGYUN 1C DEB",
        "meta_object_id": "1999-025EAN",
        "meta_epoch": "2025-12-04T12:49:18.837984",
        "meta_mean_motion": 13.88406151,
        "meta_eccentricity": 0.0148016,
        "meta_inclination": 99.2275,
        "meta_ra_of_asc_node": 257.6681,
        "meta_arg_of_pericenter": 251.0772,
        "meta_mean_anomaly": 107.4291,
        "meta_ephemeris_type": 0,
        "meta_classification_type": "U",
        "meta_norad_cat_id": 36716,
        "meta_element_set_no": 999,
        "meta_rev_at_epoch": 62817,
        "meta_bstar": 0.00042624,
        "meta_mean_motion_dot": 5.12e-06,
        "meta_mean_motion_ddot": 0,
        "tle_line1": "1 36716U 99025EAN 25338.53424581  .00000512  00000+0  42624-3 0  9999",
        "tle_line2": "2 36716  99.2275 257.6681 0148016 251.0772 107.4291 13.88406151628173"
      },
      "geometry": {
        "type": "Point",
        "coordinates": [
          83.08657266249715,
          23.760784535511135
        ]
      }
    },
    {
      "type": "Feature",
      "properties": {
        "norad_id": 36724,
        "name": "FENGYUN 1C DEB",
        "group": "fengyun-1c-debris",
        "lat": -13.780524416138793,
        "lon": -171.28964960019562,
        "alt_km": 743.8618789578768,
        "timestamp": "2025-12-05T20:43:02.343575+00:00",
        "meta_object_name": "FENGYUN 1C DEB",
        "meta_object_id": "1999-025EAW",
        "meta_epoch": "2025-12-02T00:57:35.994816",
        "meta_mean_motion": 14.25124364,
        "meta_eccentricity": 0.01035854,
        "meta_inclination": 99.4708,
        "meta_ra_of_asc_node": 6.9331,
        "meta_arg_of_pericenter": 227.7842,
        "meta_mean_anomaly": 162.27,
        "meta_ephemeris_type": 0,
        "meta_classification_type": "U",
        "meta_norad_cat_id": 36724,
        "meta_element_set_no": 999,
        "meta_rev_at_epoch": 57320,
        "meta_bstar": 0.0021080641,
        "meta_mean_motion_dot": 5.184e-05,
        "meta_mean_motion_ddot": 0,
        "tle_line1": "1 36724U 99025EAW 25336.03999994  .00005184  00000+0  21081-2 0  9999",
        "tle_line2": "2 36724  99.4708   6.9331 0103585 227.7842 162.2700 14.25124364573204"
      },
      "geometry": {
        "type": "Point",
        "coordinates": [
          -171.28964960019562,
          -13.780524416138793
        ]
      }
    },
    {
      "type": "Feature",
      "properties": {
        "norad_id": 36729,
        "name": "FENGYUN 1C DEB",
        "group": "fengyun-1c-debris",
        "lat": -75.2928010842886,
        "lon": 106.16564130137586,
        "alt_km": 834.3427848177716,
        "timestamp": "2025-12-05T20:43:02.343586+00:00",
        "meta_object_name": "FENGYUN 1C DEB",
        "meta_object_id": "1999-025EBB",
        "meta_epoch": "2025-12-03T04:29:37.222368",
        "meta_mean_motion": 14.10300692,
        "meta_eccentricity": 0.00454632,
        "meta_inclination": 98.7067,
        "meta_ra_of_asc_node": 319.2938,
        "meta_arg_of_pericenter": 283.7878,
        "meta_mean_anomaly": 75.8236,
        "meta_ephemeris_type": 0,
        "meta_classification_type": "U",
        "meta_norad_cat_id": 36729,
        "meta_element_set_no": 999,
        "meta_rev_at_epoch": 87117,
        "meta_bstar": 0.00037904944,
        "meta_mean_motion_dot": 6.36e-06,
        "meta_mean_motion_ddot": 0,
        "tle_line1": "1 36729U 99025EBB 25337.18723637  .00000636  00000+0  37905-3 0  9990",
        "tle_line2": "2 36729  98.7067 319.2938 0045463 283.7878  75.8236 14.10300692871177"
      },
      "geometry": {
        "type": "Point",
        "coordinates": [
          106.16564130137586,
          -75.2928010842886
        ]
      }
    },
    {
      "type": "Feature",
      "properties": {
        "norad_id": 36734,
        "name": "FENGYUN 1C DEB",
        "group": "fengyun-1c-debris",
        "lat": -4.9956429755954215,
        "lon": 27.332393072970245,
        "alt_km": 820.8898984708785,
        "timestamp": "2025-12-05T20:43:02.343596+00:00",
        "meta_object_name": "FENGYUN 1C DEB",
        "meta_object_id": "1999-025EBG",
        "meta_epoch": "2025-12-02T01:47:23.275680",
        "meta_mean_motion": 14.25724039,
        "meta_eccentricity": 0.00354571,
        "meta_inclination": 99.0569,
        "meta_ra_of_asc_node": 22.6212,
        "meta_arg_of_pericenter": 249.1772,
        "meta_mean_anomaly": 110.5608,
        "meta_ephemeris_type": 0,
        "meta_classification_type": "U",
        "meta_norad_cat_id": 36734,
        "meta_element_set_no": 999,
        "meta_rev_at_epoch": 82582,
        "meta_bstar": 0.0018421296,
        "meta_mean_motion_dot": 4.356e-05,
        "meta_mean_motion_ddot": 0,
        "tle_line1": "1 36734U 99025EBG 25336.07457495  .00004356  00000+0  18421-2 0  9993",
        "tle_line2": "2 36734  99.0569  22.6212 0035457 249.1772 110.5608 14.25724039825827"
      },
      "geometry": {
        "type": "Point",
        "coordinates": [
          27.332393072970245,
          -4.9956429755954215
        ]
      }
    },
    {
      "type": "Feature",
      "properties": {
        "norad_id": 36736,
        "name": "FENGYUN 1C DEB",
        "group": "fengyun-1c-debris",
        "lat": 74.31858297425386,
        "lon": -93.18046608446353,
        "alt_km": 775.4566561669862,
        "timestamp": "2025-12-05T20:43:02.343606+00:00",
        "meta_object_name": "FENGYUN 1C DEB",
        "meta_object_id": "1999-025EBJ",
        "meta_epoch": "2025-12-04T10:32:23.233056",
        "meta_mean_motion": 14.25365583,
        "meta_eccentricity": 0.006147,
        "meta_inclination": 98.8075,
        "meta_ra_of_asc_node": 51.8674,
        "meta_arg_of_pericenter": 163.5738,
        "meta_mean_anomaly": 196.7452,
        "meta_ephemeris_type": 0,
        "meta_classification_type": "U",
        "meta_norad_cat_id": 36736,
        "meta_element_set_no": 999,
        "meta_rev_at_epoch": 88497,
        "meta_bstar": 0.0039834,
        "meta_mean_motion_dot": 9.544e-05,
        "meta_mean_motion_ddot": 0,
        "tle_line1": "1 36736U 99025EBJ 25338.43915779  .00009544  00000+0  39834-2 0  9996",
        "tle_line2": "2 36736  98.8075  51.8674 0061470 163.5738 196.7452 14.25365583884978"
      },
      "geometry": {
        "type": "Point",
        "coordinates": [
          -93.18046608446353,
          74.31858297425386
        ]
      }
    },
    {
      "type": "Feature",
      "properties": {
        "norad_id": 36743,
        "name": "FENGYUN 1C DEB",
        "group": "fengyun-1c-debris",
        "lat": 43.40912275734263,
        "lon": 19.89511746242684,
        "alt_km": 757.573711385443,
        "timestamp": "2025-12-05T20:43:02.343616+00:00",
        "meta_object_name": "FENGYUN 1C DEB",
        "meta_object_id": "1999-025EBR",
        "meta_epoch": "2025-12-04T14:15:58.905792",
        "meta_mean_motion": 14.29017755,
        "meta_eccentricity": 0.0047823,
        "meta_inclination": 98.656,
        "meta_ra_of_asc_node": 26.9209,
        "meta_arg_of_pericenter": 37.2124,
        "meta_mean_anomaly": 323.2356,
        "meta_ephemeris_type": 0,
        "meta_classification_type": "U",
        "meta_norad_cat_id": 36743,
        "meta_element_set_no": 999,
        "meta_rev_at_epoch": 60621,
        "meta_bstar": 0.0026931,
        "meta_mean_motion_dot": 6.861e-05,
        "meta_mean_motion_ddot": 0,
        "tle_line1": "1 36743U 99025EBR 25338.59443178  .00006861  00000+0  26931-2 0  9993",
        "tle_line2": "2 36743  98.6560  26.9209 0047823  37.2124 323.2356 14.29017755606210"
      },
      "geometry": {
        "type": "Point",
        "coordinates": [
          19.89511746242684,
          43.40912275734263
        ]
      }
    }
  ]
}